NORAD_CAT_ID,OBJECT_NAME,OBJECT_TYPE,EPOCH,MEAN_MOTION,ECCENTRICITY,INCLINATION,RA_OF_ASC_NODE,ARG_OF_PERICENTER,MEAN_ANOMALY,BSTAR,MEAN_MOTION_DOT,MEAN_MOTION_DDOT,TLE_LINE0,TLE_LINE1,TLE_LINE2,SEMIMAJOR_AXIS,PERIOD,APOGEE,PERIGEE,DECAYED
52127.0,STARLINK-3715,PAYLOAD,2023-05-26 12:14:26,15.08839291,0.0001112,53.2179,319.9072,88.0555,272.0565,3.9236e-05,3.37e-06,0.0,0 STARLINK-3715,1 52127U 22029AR  23146.51002639  .00000337  00000-0  39236-4 0  9994,2 52127  53.2179 319.9072 0001112  88.0555 272.0565 15.08839291 67212,6917.883,95.438,540.517,538.978,0.0
52127.0,STARLINK-3715,PAYLOAD,2023-05-26 17:00:35,15.08838415,9.62e-05,53.2172,319.0135,93.0256,267.0847,1.9281e-05,1.9e-07,0.0,0 STARLINK-3715,1 52127U 22029AR  23146.70874682  .00000019  00000-0  19281-4 0  9995,2 52127  53.2172 319.0135 0000962  93.0256 267.0847 15.08838415 67249,6917.885,95.438,540.416,539.085,0.0
52127.0,STARLINK-3715,PAYLOAD,2023-05-27 20:02:09,15.08839395,9.07e-05,53.2176,313.9603,83.2133,276.8963,4.0485e-05,3.57e-06,0.0,0 STARLINK-3715,1 52127U 22029AR  23147.83483109  .00000357  00000-0  40485-4 0  9995,2 52127  53.2176 313.9603 0000907  83.2133 276.8963 15.08839395 67414,6917.882,95.438,540.375,539.12,0.0
52127.0,STARLINK-3715,PAYLOAD,2023-05-28 03:59:05,15.08837282,8.63e-05,53.2176,312.4733,88.5361,271.573,8.602e-05,1.081e-05,0.0,0 STARLINK-3715,1 52127U 22029AR  23148.16603211  .00001081  00000-0  86020-4 0  9990,2 52127  53.2176 312.4733 0000863  88.5361 271.5730 15.08837282 67466,6917.889,95.438,540.351,539.157,0.0
52127.0,STARLINK-3715,PAYLOAD,2023-05-28 19:52:55,15.08850244,8.57e-05,53.2175,309.4995,89.0723,271.0368,0.00018754,2.699e-05,0.0,0 STARLINK-3715,1 52127U 22029AR  23148.82842271  .00002699  00000-0  18754-3 0  9998,2 52127  53.2175 309.4995 0000857  89.0723 271.0368 15.08850244 67568,6917.849,95.437,540.307,539.121,0.0
52127.0,STARLINK-3715,PAYLOAD,2023-05-29 14:57:33,15.08840184,8.21e-05,53.2167,305.9311,83.5394,276.5692,0.0001187,1.602e-05,0.0,0 STARLINK-3715,1 52127U 22029AR  23149.62330987  .00001602  00000-0  11870-3 0  9998,2 52127  53.2167 305.9311 0000821  83.5394 276.5692 15.08840184 67681,6917.88,95.438,540.313,539.177,0.0
52127.0,STARLINK-3715,PAYLOAD,2023-05-29 16:32:57,15.0883892,8.8e-05,53.2165,305.6334,94.7842,265.3251,9.1364e-05,1.167e-05,0.0,0 STARLINK-3715,1 52127U 22029AR  23149.68955002  .00001167  00000-0  91364-4 0  9998,2 52127  53.2165 305.6334 0000880  94.7842 265.3251 15.08838920 67691,6917.884,95.438,540.357,539.14,0.0
52127.0,STARLINK-3715,PAYLOAD,2023-05-30 10:02:11,15.08838437,7.5e-05,53.2163,302.3628,81.9658,278.1419,1.4857e-05,-5.1e-07,0.0,0 STARLINK-3715,1 52127U 22029AR  23150.41819103 -.00000051  00000-0  14857-4 0  9996,2 52127  53.2163 302.3628 0000750  81.9658 278.1419 15.08838437 67802,6917.885,95.438,540.269,539.231,0.0
52127.0,STARLINK-3715,PAYLOAD,2023-05-30 16:23:44,15.08841113,7.58e-05,53.2163,301.173,87.0429,273.065,-3.3883e-06,-3.42e-06,0.0,0 STARLINK-3715,1 52127U 22029AR  23150.68315012 -.00000342  00000-0 -33883-5 0  9990,2 52127  53.2163 301.1730 0000758  87.0429 273.0650 15.08841113 67844,6917.877,95.437,540.266,539.218,0.0
52127.0,STARLINK-3715,PAYLOAD,2023-05-31 09:52:58,15.08839766,7.57e-05,53.2172,297.9018,88.4702,271.6377,7.1998e-05,8.58e-06,0.0,0 STARLINK-3715,1 52127U 22029AR  23151.41179138  .00000858  00000-0  71998-4 0  9997,2 52127  53.2172 297.9018 0000757  88.4702 271.6377 15.08839766 67956,6917.881,95.438,540.27,539.222,0.0
52127.0,STARLINK-3715,PAYLOAD,2023-05-31 13:03:44,15.08841419,7.72e-05,53.2173,297.3073,87.872,272.236,8.3156e-05,1.036e-05,0.0,0 STARLINK-3715,1 52127U 22029AR  23151.54426994  .00001036  00000-0  83156-4 0  9994,2 52127  53.2173 297.3073 0000772  87.8720 272.2360 15.08841419 67971,6917.876,95.437,540.275,539.207,0.0
52127.0,STARLINK-3715,PAYLOAD,2023-05-31 16:14:30,15.08847402,7.85e-05,53.2173,296.7127,82.2467,277.8615,4.1944e-05,3.8e-06,0.0,0 STARLINK-3715,1 52127U 22029AR  23151.67674686  .00000380  00000-0  41944-4 0  9991,2 52127  53.2173 296.7127 0000785  82.2467 277.8615 15.08847402 67999,6917.858,95.437,540.266,539.18,0.0
52127.0,STARLINK-3715,PAYLOAD,2023-06-01 09:43:45,15.08839776,9.25e-05,53.2182,293.4422,79.4153,280.6944,8.8731e-05,1.125e-05,0.0,0 STARLINK-3715,1 52127U 22029AR  23152.40539105  .00001125  00000-0  88731-4 0  9992,2 52127  53.2182 293.4422 0000925  79.4153 280.6944 15.08839776 68103,6917.881,95.438,540.386,539.106,0.0
52127.0,STARLINK-3715,PAYLOAD,2023-06-02 09:34:33,15.08835015,7.68e-05,53.2173,288.982,72.4655,287.6421,1.9051e-05,1.6e-07,0.0,0 STARLINK-3715,1 52127U 22029AR  23153.39899711  .00000016  00000-0  19051-4 0  9990,2 52127  53.2173 288.9820 0000768  72.4655 287.6421 15.08835015 68254,6917.896,95.438,540.292,539.229,0.0
52127.0,STARLINK-3715,PAYLOAD,2023-06-02 14:20:42,15.08837419,8.78e-05,53.2178,288.0896,77.2641,282.8449,2.3843e-05,9.2e-07,0.0,0 STARLINK-3715,1 52127U 22029AR  23153.59771630  .00000092  00000-0  23843-4 0  9999,2 52127  53.2178 288.0896 0000878  77.2641 282.8449 15.08837419 68283,6917.888,95.438,540.361,539.146,0.0
52127.0,STARLINK-3715,PAYLOAD,2023-06-02 15:56:05,15.08840309,8.42e-05,53.2179,287.7912,77.3017,282.8069,2.0535e-05,3.9e-07,0.0,0 STARLINK-3715,1 52127U 22029AR  23153.66395430  .00000039  00000-0  20535-4 0  9993,2 52127  53.2179 287.7912 0000842  77.3017 282.8069 15.08840309 68299,6917.879,95.438,540.327,539.162,0.0
52127.0,STARLINK-3715,PAYLOAD,2023-06-03 14:11:30,15.08834318,8.66e-05,53.2167,283.6306,88.1436,271.9655,3.7115e-05,3.03e-06,0.0,0 STARLINK-3715,1 52127U 22029AR  23154.59132025  .00000303  00000-0  37115-4 0  9991,2 52127  53.2167 283.6306 0000866  88.1436 271.9655 15.08834318 68438,6917.898,95.438,540.362,539.164,0.0
52127.0,STARLINK-3715,PAYLOAD,2023-06-03 18:57:39,15.08840808,8.66e-05,53.2169,282.7379,88.5364,271.5727,8.5318e-05,1.07e-05,0.0,0 STARLINK-3715,1 52127U 22029AR  23154.79003531  .00001070  00000-0  85318-4 0  9992,2 52127  53.2169 282.7379 0000866  88.5364 271.5727 15.08840808 68464,6917.878,95.438,540.342,539.144,0.0
52127.0,STARLINK-3715,PAYLOAD,2023-06-04 14:02:16,15.08840032,8.46e-05,53.2173,279.1687,96.814,263.2949,0.00012113,1.641e-05,0.0,0 STARLINK-3715,1 52127U 22029AR  23155.58491870  .00001641  00000-0  12113-3 0  9993,2 52127  53.2173 279.1687 0000846  96.8140 263.2949 15.08840032 68589,6917.88,95.438,540.331,539.16,0.0
52127.0,STARLINK-3715,PAYLOAD,2023-06-04 15:37:40,15.0884185,8.4e-05,53.2173,278.8714,95.6876,264.4212,0.00013986,1.939e-05,0.0,0 STARLINK-3715,1 52127U 22029AR  23155.65115753  .00001939  00000-0  13986-3 0  9993,2 52127  53.2173 278.8714 0000840  95.6876 264.4212 15.08841850 68599,6917.875,95.437,540.321,539.159,0.0
52127.0,STARLINK-3715,PAYLOAD,2023-06-05 12:17:40,15.08847243,9.28e-05,53.217,275.0052,91.1814,268.9284,0.00024007,3.536e-05,0.0,0 STARLINK-3715,1 52127U 22029AR  23156.51227509  .00003536  00000-0  24007-3 0  9993,2 52127  53.2170 275.0052 0000928  91.1814 268.9284 15.08847243 68725,6917.858,95.437,540.365,539.081,0.0
52127.0,STARLINK-3715,PAYLOAD,2023-06-05 17:03:49,15.08853797,8.9e-05,53.2166,274.1129,93.2281,266.8813,0.00031164,4.677e-05,0.0,0 STARLINK-3715,1 52127U 22029AR  23156.71099197  .00004677  00000-0  31164-3 0  9994,2 52127  53.2166 274.1129 0000890  93.2281 266.8813 15.08853797 68753,6917.838,95.437,540.319,539.088,0.0
52127.0,STARLINK-3715,PAYLOAD,2023-06-06 07:22:18,15.08844349,8.55e-05,53.2163,271.4369,96.9651,263.1438,0.00012184,1.652e-05,0.0,0 STARLINK-3715,1 52127U 22029AR  23157.30715495  .00001652  00000-0  12184-3 0  9997,2 52127  53.2163 271.4369 0000855  96.9651 263.1438 15.08844349 68844,6917.867,95.437,540.324,539.141,0.0
52127.0,STARLINK-3715,PAYLOAD,2023-06-06 12:08:27,15.08841435,0.0001087,53.2158,270.5458,87.9808,272.1308,1.0028e-05,-1.28e-06,0.0,0 STARLINK-3715,1 52127U 22029AR  23157.50587572 -.00000128  00000-0  10028-4 0  9996,2 52127  53.2158 270.5458 0001087  87.9808 272.1308 15.08841435 68871,6917.876,95.437,540.493,538.989,0.0
52127.0,STARLINK-3715,PAYLOAD,2023-06-06 16:54:36,15.088488,9.44e-05,53.2168,269.6529,88.585,271.525,0.00012515,1.705e-05,0.0,0 STARLINK-3715,1 52127U 22029AR  23157.70459259  .00001705  00000-0  12515-3 0  9991,2 52127  53.2168 269.6529 0000944  88.5850 271.5250 15.08848800 68901,6917.853,95.437,540.372,539.065,0.0
52127.0,STARLINK-3715,PAYLOAD,2023-06-07 07:13:05,15.08838038,9.95e-05,53.2164,266.9775,104.31,255.8003,2.0342e-05,3.6e-07,0.0,0 STARLINK-3715,1 52127U 22029AR  23158.30075657  .00000036  00000-0  20342-4 0  9998,2 52127  53.2164 266.9775 0000995 104.3100 255.8003 15.08838038 68993,6917.886,95.438,540.44,539.063,0.0
52127.0,STARLINK-3715,PAYLOAD,2023-06-07 16:45:24,15.08844228,9.74e-05,53.2159,265.193,97.6941,262.4161,7.4099e-05,8.92e-06,0.0,0 STARLINK-3715,1 52127U 22029AR  23158.69819511  .00000892  00000-0  74099-4 0  9993,2 52127  53.2159 265.1930 0000974  97.6941 262.4161 15.08844228 69050,6917.867,95.437,540.406,539.059,0.0
52127.0,STARLINK-3715,PAYLOAD,2023-06-08 11:50:01,15.08848563,0.0001071,53.2167,261.6234,122.6794,237.4302,0.00038314,5.816e-05,0.0,0 STARLINK-3715,1 52127U 22029AR  23159.49307597  .00005816  00000-0  38314-3 0  9998,2 52127  53.2167 261.6234 0001071 122.6794 237.4302 15.08848563 69179,6917.854,95.437,540.46,538.978,0.0
52127.0,STARLINK-3715,PAYLOAD,2023-06-08 13:25:24,15.08870555,4.72e-05,53.2163,261.3252,86.8649,273.2397,0.00072505,0.0001128,0.0,0 STARLINK-3715,1 52127U 22029AR  23159.55930620  .00011280  00000-0  72505-3 0  9996,2 52127  53.2163 261.3252 0000472  86.8649 273.2397 15.08870555 69185,6917.787,95.436,539.979,539.325,0.0
52127.0,STARLINK-3715,PAYLOAD,2023-06-08 18:11:32,15.08885981,0.0001013,53.2161,260.4332,141.7461,218.3604,0.00092847,0.00014538,0.0,0 STARLINK-3715,1 52127U 22029AR  23159.75801581  .00014538  00000-0  92847-3 0  9991,2 52127  53.2161 260.4332 0001013 141.7461 218.3604 15.08885981 69211,6917.74,95.435,540.306,538.904,0.0
